NORAD_CAT_ID,OBJECT_NAME,OBJECT_TYPE,EPOCH,MEAN_MOTION,ECCENTRICITY,INCLINATION,RA_OF_ASC_NODE,ARG_OF_PERICENTER,MEAN_ANOMALY,BSTAR,MEAN_MOTION_DOT,MEAN_MOTION_DDOT,TLE_LINE0,TLE_LINE1,TLE_LINE2,SEMIMAJOR_AXIS,PERIOD,APOGEE,PERIGEE,DECAYED
52483.0,STARLINK-3875,PAYLOAD,2022-09-02 14:00:01,15.08856879,0.0001509,53.2155,53.6929,73.0585,264.9623,-0.0013942,-0.00022418,0.0,0 STARLINK-3875,1 52483U 22049AJ  22245.58334491 -.00022418  00000-0 -13942-2 0  9991,2 52483  53.2155  53.6929 0001509  73.0585 264.9623 15.08856879  1305,6917.829000000002,95.436,540.738,538.65,0.0
52483.0,STARLINK-3875,PAYLOAD,2022-09-02 22:00:01,15.08823841,0.0001573,53.2154,52.1978,64.6425,285.0516,0.0028098,0.00044694,0.0,0 STARLINK-3875,1 52483U 22049AJ  22245.91668981  .00044694  00000-0  28098-2 0  9998,2 52483  53.2154  52.1978 0001573  64.6425 285.0516 15.08823841  1300,6917.93,95.439,540.883,538.707,0.0
52483.0,STARLINK-3875,PAYLOAD,2022-09-03 08:00:01,15.08840315,0.000151,53.2153,50.3253,72.7683,21.3674,0.00052866,8.136e-05,0.0,0 STARLINK-3875,1 52483U 22049AJ  22246.33334491  .00008136  00000-0  52866-3 0  9993,2 52483  53.2153  50.3253 0001510  72.7683  21.3674 15.08840315 18806,6917.879,95.438,540.789,538.7,0.0
52483.0,STARLINK-3875,PAYLOAD,2022-09-03 14:00:01,15.0885651,0.0001645,53.2155,49.2038,72.3498,300.4833,-0.0025857,-0.00041223,0.0,0 STARLINK-3875,1 52483U 22049AJ  22246.58334491 -.00041223  00000-0 -25857-2 0  9995,2 52483  53.2155  49.2038 0001645  72.3498 300.4833 15.08856510  1304,6917.83,95.437,540.8330000000002,538.557,0.0
52483.0,STARLINK-3875,PAYLOAD,2022-09-03 22:00:00,15.08813756,0.0001712,53.2154,47.7086,64.9827,319.4508,0.0028774,0.00045771,0.0,0 STARLINK-3875,1 52483U 22049AJ  22246.91667824  .00045771  00000-0  28774-2 0  9992,2 52483  53.2154  47.7086 0001712  64.9827 319.4508 15.08813756  1301,6917.9609999999975,95.439,541.01,538.641,0.0
52483.0,STARLINK-3875,PAYLOAD,2022-09-04 06:00:00,15.0882761,0.0001605,53.2156,46.2104,71.6053,324.4258,0.0021232,0.00033653,0.0,0 STARLINK-3875,1 52483U 22049AJ  22247.25001157  .00033653  00000-0  21232-2 0  9999,2 52483  53.2156  46.2104 0001605  71.6053 324.4258 15.08827610 18945,6917.918000000002,95.438,540.894,538.673,0.0
52483.0,STARLINK-3875,PAYLOAD,2022-09-04 14:00:01,15.08878107,0.0001655,53.2158,44.7146,69.8887,337.7947,-0.0043397,-0.00068767,0.0,0 STARLINK-3875,1 52483U 22049AJ  22247.58335648 -.00068767  00000-0 -43397-2 0  9992,2 52483  53.2158  44.7146 0001655  69.8887 337.7947 15.08878107  1306,6917.764,95.435,540.774,538.484,0.0
52483.0,STARLINK-3875,PAYLOAD,2022-09-04 20:00:01,15.08819057,0.0001694,53.2159,43.5933,63.2782,263.0712,0.0030226999999999,0.00048119,0.0,0 STARLINK-3875,1 52483U 22049AJ  22247.83334491  .00048119  00000-0  30227-2 0  9990,2 52483  53.2159  43.5933 0001694  63.2782 263.0712 15.08819057 19032,6917.944,95.439,540.981,538.638,0.0
52483.0,STARLINK-3875,PAYLOAD,2022-09-05 14:00:01,15.08858186,0.0001496,53.2161,40.2253,65.2113,17.2317,-0.0020206,-0.00032318,0.0,0 STARLINK-3875,1 52483U 22049AJ  22248.58334491 -.00032318  00000-0 -20206-2 0  9995,2 52483  53.2161  40.2253 0001496  65.2113  17.2317 15.08858186 19142,6917.825,95.436,540.725,538.655,0.0
52483.0,STARLINK-3875,PAYLOAD,2022-09-05 22:00:00,15.08829107,0.0001524,53.216,38.7297,57.1661,36.8807,-0.0012730999999999,-0.00020486,0.0,0 STARLINK-3875,1 52483U 22049AJ  22248.91667824 -.00020486  00000-0 -12731-2 0  9998,2 52483  53.2160  38.7297 0001524  57.1661  36.8807 15.08829107  1302,6917.9140000000025,95.438,540.8330000000002,538.724,0.0
52483.0,STARLINK-3875,PAYLOAD,2022-09-06 14:00:01,15.08823128,0.0001512,53.2164,35.736,64.9903,52.1811,-0.0013477,-0.00021663,0.0,0 STARLINK-3875,1 52483U 22049AJ  22249.58334491 -.00021663  00000-0 -13477-2 0  9999,2 52483  53.2164  35.7360 0001512  64.9903  52.1811 15.08823128  1309,6917.932,95.439,540.8430000000002,538.751,0.0
52483.0,STARLINK-3875,PAYLOAD,2022-09-06 22:00:00,15.08806417,0.0001554,53.2162,34.2403,57.9539,70.7834,0.002058,0.00032587,0.0,0 STARLINK-3875,1 52483U 22049AJ  22249.91667824  .00032587  00000-0  20580-2 0  9993,2 52483  53.2162  34.2403 0001554  57.9539  70.7834 15.08806417 19348,6917.983,95.44,540.923,538.773,0.0
52483.0,STARLINK-3875,PAYLOAD,2022-09-07 14:00:01,15.08846442,0.0001482,53.2165,31.2468,64.5225,87.3628,-0.0013191,-0.00021224,0.0,0 STARLINK-3875,1 52483U 22049AJ  22250.58334491 -.00021224  00000-0 -13191-2 0  9997,2 52483  53.2165  31.2468 0001482  64.5225  87.3628 15.08846442 19443,6917.861,95.437,540.751,538.7,0.0
52483.0,STARLINK-3875,PAYLOAD,2022-09-07 22:00:00,15.08837543,0.0001511,53.2161,29.7508,58.0787,105.4023,0.0014215999999999,0.00022408,0.0,0 STARLINK-3875,1 52483U 22049AJ  22250.91667824  .00022408  00000-0  14216-2 0  9995,2 52483  53.2161  29.7508 0001511  58.0787 105.4023 15.08837543  1309,6917.888000000001,95.438,540.798,538.7080000000002,0.0
52483.0,STARLINK-3875,PAYLOAD,2022-09-08 06:00:00,15.08838061,0.0001305,53.2163,28.2528,66.4051,108.6884,0.00045643,6.983e-05,0.0,0 STARLINK-3875,1 52483U 22049AJ  22251.25001157  .00006983  00000-0  45643-3 0  9993,2 52483  53.2163  28.2528 0001305  66.4051 108.6884 15.08838061 19546,6917.886,95.438,540.654,538.849,0.0
52483.0,STARLINK-3875,PAYLOAD,2022-09-08 14:00:01,15.08843914,0.0001358,53.2164,26.7576,61.9698,124.715,-0.001123,-0.00018118,0.0,0 STARLINK-3875,1 52483U 22049AJ  22251.58334491 -.00018118  00000-0 -11230-2 0  9998,2 52483  53.2164  26.7576 0001358  61.9698 124.7150 15.08843914  1301,6917.868,95.437,540.673,538.794,0.0
52483.0,STARLINK-3875,PAYLOAD,2022-09-08 22:00:00,15.08848984,0.0001428,53.216,25.2615,56.9363,141.3423,2.7793000000000013e-05,1.54e-06,0.0,0 STARLINK-3875,1 52483U 22049AJ  22251.91667824  .00000154  00000-0  27793-4 0  9996,2 52483  53.2160  25.2615 0001428  56.9363 141.3423 15.08848984  1306,6917.853,95.437,540.706,538.73,0.0
52483.0,STARLINK-3875,PAYLOAD,2022-09-09 14:00:01,15.08844982,0.0001491,53.2162,22.2685,63.2196,158.2612,-0.00065068,-0.0001063,0.0,0 STARLINK-3875,1 52483U 22049AJ  22252.58334491 -.00010630  00000-0 -65068-3 0  9999,2 52483  53.2162  22.2685 0001491  63.2196 158.2612 15.08844982  1308,6917.865,95.437,540.762,538.6990000000002,0.0
52483.0,STARLINK-3875,PAYLOAD,2022-09-09 22:00:00,15.0886339,0.0001546,53.2159,20.7723,59.2864,173.7857,-0.0024189,-0.00038603,0.0,0 STARLINK-3875,1 52483U 22049AJ  22252.91667824 -.00038603  00000-0 -24189-2 0  9993,2 52483  53.2159  20.7723 0001546  59.2864 173.7857 15.08863390  1305,6917.809,95.436,540.743,538.604,0.0
52483.0,STARLINK-3875,PAYLOAD,2022-09-10 14:00:01,15.08847723,0.0001608,53.2161,17.7795,63.4837,192.7834,-0.0010956,-0.00017686,0.0,0 STARLINK-3875,1 52483U 22049AJ  22253.58334491 -.00017686  00000-0 -10956-2 0  9993,2 52483  53.2161  17.7795 0001608  63.4837 192.7834 15.08847723  1307,6917.857,95.437,540.8340000000002,538.609,0.0
52483.0,STARLINK-3875,PAYLOAD,2022-09-10 22:00:00,15.08853808,0.0001547,53.2161,16.2831,57.5901,210.2759,-0.0022098,-0.00035298,0.0,0 STARLINK-3875,1 52483U 22049AJ  22253.91667824 -.00035298  00000-0 -22098-2 0  9998,2 52483  53.2161  16.2831 0001547  57.5901 210.2759 15.08853808  1303,6917.8380000000025,95.437,540.773,538.633,0.0
52483.0,STARLINK-3875,PAYLOAD,2022-09-11 14:00:01,15.08862321,0.0001558,53.2164,13.2905,58.5901,232.4685,-0.001574,-0.00025266,0.0,0 STARLINK-3875,1 52483U 22049AJ  22254.58334491 -.00025266  00000-0 -15740-2 0  9993,2 52483  53.2164  13.2905 0001558  58.5901 232.4685 15.08862321  1302,6917.812,95.436,540.755,538.599,0.0
52483.0,STARLINK-3875,PAYLOAD,2022-09-11 22:00:00,15.0886652,0.0001536,53.2164,11.794,53.4766,249.1902,-0.0042111,-0.00066735,0.0,0 STARLINK-3875,1 52483U 22049AJ  22254.91667824 -.00066735  00000-0 -42111-2 0  9997,2 52483  53.2164  11.7940 0001536  53.4766 249.1902 15.08866520  1305,6917.799,95.436,540.727,538.602,0.0
52483.0,STARLINK-3875,PAYLOAD,2022-09-12 12:00:00,15.08843961,0.0001583,53.2169,9.1752,58.68899999999999,174.2557,-0.00057409,-9.414e-05,0.0,0 STARLINK-3875,1 52483U 22049AJ  22255.50001157 -.00009414  00000-0 -57409-3 0  9992,2 52483  53.2169   9.1752 0001583  58.6890 174.2557 15.08843961 20195,6917.868,95.437,540.828,538.638,0.0
52483.0,STARLINK-3875,PAYLOAD,2022-09-12 14:00:01,15.08843339,0.0001631,53.2168,8.8015,55.9553,269.8886,-0.00061156,-0.00010009,0.0,0 STARLINK-3875,1 52483U 22049AJ  22255.58334491 -.00010009  00000-0 -61156-3 0  9996,2 52483  53.2168   8.8015 0001631  55.9553 269.8886 15.08843339  1309,6917.87,95.437,540.863,538.607,0.0
52483.0,STARLINK-3875,PAYLOAD,2022-09-12 22:00:00,15.08856442,0.0001554999999999,53.2169,7.305,52.4762,284.9627,-0.0025453,-0.00040587,0.0,0 STARLINK-3875,1 52483U 22049AJ  22255.91667824 -.00040587  00000-0 -25453-2 0  9995,2 52483  53.2169   7.3050 0001555  52.4762 284.9627 15.08856442  1302,6917.83,95.437,540.771,538.619,0.0
52483.0,STARLINK-3875,PAYLOAD,2022-09-13 14:00:01,15.08826304,0.0001704,53.2172,4.3126,54.2109,306.4259,1.3023e-05,-8.1e-07,0.0,0 STARLINK-3875,1 52483U 22049AJ  22256.58334491 -.00000081  00000-0  13023-4 0  9996,2 52483  53.2172   4.3126 0001704  54.2109 306.4259 15.08826304  1314,6917.922,95.438,540.966,538.6080000000002,0.0
52483.0,STARLINK-3875,PAYLOAD,2022-09-13 16:00:00,15.0881731,0.0001733999999999,53.2172,3.9389,52.7771,40.7569,0.0014295999999999,0.00022523,0.0,0 STARLINK-3875,1 52483U 22049AJ  22256.66667824  .00022523  00000-0  14296-2 0  9999,2 52483  53.2172   3.9389 0001734  52.7771  40.7569 15.08817310 20366,6917.95,95.439,541.014,538.615,0.0
52483.0,STARLINK-3875,PAYLOAD,2022-09-13 22:00:00,15.08849049,0.0001613,53.2171,2.8157,51.5386,320.6636,-0.003797,-0.00060227,0.0,0 STARLINK-3875,1 52483U 22049AJ  22256.91667824 -.00060227  00000-0 -37970-2 0  9996,2 52483  53.2171   2.8157 0001613  51.5386 320.6636 15.08849049  1303,6917.853,95.437,540.8340000000002,538.602,0.0
